NORAD_CAT_ID,OBJECT_NAME,OBJECT_TYPE,EPOCH,MEAN_MOTION,ECCENTRICITY,INCLINATION,RA_OF_ASC_NODE,ARG_OF_PERICENTER,MEAN_ANOMALY,BSTAR,MEAN_MOTION_DOT,MEAN_MOTION_DDOT,TLE_LINE0,TLE_LINE1,TLE_LINE2,SEMIMAJOR_AXIS,PERIOD,APOGEE,PERIGEE,DECAYED
50175.0,STARLINK-3291,PAYLOAD,2022-11-21 19:02:03,15.08842197,0.0002375,53.2184,253.6291,35.8173,324.2978,1.9023e-05,1.4e-07,0.0,0 STARLINK-3291,1 50175U 21125V   22325.79309510  .00000014  00000-0  19023-4 0  9991,2 50175  53.2184 253.6291 0002375  35.8173 324.2978 15.08842197 54857,6917.874,95.437,541.382,538.096,0.0
50175.0,STARLINK-3291,PAYLOAD,2022-11-22 12:31:17,15.08836805,0.0002398,53.2184,250.3569,39.5835,320.5331,9.6278e-05,1.244e-05,0.0,0 STARLINK-3291,1 50175U 21125V   22326.52173611  .00001244  00000-0  96278-4 0  9997,2 50175  53.2184 250.3569 0002398  39.5835 320.5331 15.08836805 54963,6917.89,95.438,541.414,538.096,0.0
50175.0,STARLINK-3291,PAYLOAD,2022-11-23 04:25:09,15.08843433,0.0002415,53.2185,247.3835,38.164,321.9523,-5.2098e-05,-1.118e-05,0.0,0 STARLINK-3291,1 50175U 21125V   22327.18413543 -.00001118  00000-0 -52098-4 0  9995,2 50175  53.2185 247.3835 0002415  38.1640 321.9523 15.08843433 54575,6917.87,95.437,541.406,538.064,0.0
50175.0,STARLINK-3291,PAYLOAD,2022-11-23 12:22:05,15.08835058,0.0002305,53.2184,245.8968,38.9044,321.2114,6.631100000000001e-05,7.67e-06,0.0,0 STARLINK-3291,1 50175U 21125V   22327.51533660  .00000767  00000-0  66311-4 0  9995,2 50175  53.2184 245.8968 0002305  38.9044 321.2114 15.08835058 55112,6917.895,95.438,541.355,538.1659999999998,0.0
50175.0,STARLINK-3291,PAYLOAD,2022-11-24 04:15:56,15.08833602,0.0002285,53.2187,242.9228,38.2072,321.9082,-2.446e-05,-6.78e-06,0.0,0 STARLINK-3291,1 50175U 21125V   22328.17773945 -.00000678  00000-0 -24460-4 0  9992,2 50175  53.2187 242.9228 0002285  38.2072 321.9082 15.08833602 54723,6917.9,95.438,541.346,538.184,0.0
50175.0,STARLINK-3291,PAYLOAD,2022-11-25 04:06:44,15.08831664,0.0002398,53.2184,238.4631,37.2091,322.9067,-3.005e-05,-7.66e-06,0.0,0 STARLINK-3291,1 50175U 21125V   22329.17134285 -.00000766  00000-0 -30050-4 0  9991,2 50175  53.2184 238.4631 0002398  37.2091 322.9067 15.08831664 55364,6917.906,95.438,541.43,538.112,0.0
50175.0,STARLINK-3291,PAYLOAD,2022-11-26 00:46:43,15.08843959,0.0002424,53.2179,234.598,37.3458,322.7702,7.6504e-05,9.3e-06,0.0,0 STARLINK-3291,1 50175U 21125V   22330.03245173  .00000930  00000-0  76504-4 0  9992,2 50175  53.2179 234.5980 0002424  37.3458 322.7702 15.08843959 55005,6917.868,95.437,541.41,538.056,0.0
50175.0,STARLINK-3291,PAYLOAD,2022-11-26 10:19:03,15.0883685,0.0002516,53.2183,232.8142,40.7975,319.3206,4.8474e-05,4.83e-06,0.0,0 STARLINK-3291,1 50175U 21125V   22330.42989752  .00000483  00000-0  48474-4 0  9991,2 50175  53.2183 232.8142 0002516  40.7975 319.3206 15.08836850 55064,6917.89,95.438,541.496,538.014,0.0
50175.0,STARLINK-3291,PAYLOAD,2022-11-26 18:15:58,15.08842203,0.0002431,53.2178,231.3272,32.8828,327.2315,9.0312e-05,1.149e-05,0.0,0 STARLINK-3291,1 50175U 21125V   22330.76109175  .00001149  00000-0  90312-4 0  9999,2 50175  53.2178 231.3272 0002431  32.8828 327.2315 15.08842203 55609,6917.874,95.437,541.42,538.057,0.0
50175.0,STARLINK-3291,PAYLOAD,2022-11-27 02:12:53,15.08842525,0.0002483,53.218,229.8402,37.336,322.7804,0.00010028,1.308e-05,0.0,0 STARLINK-3291,1 50175U 21125V   22331.09229055  .00001308  00000-0  10028-3 0  9998,2 50175  53.2180 229.8402 0002483  37.3360 322.7804 15.08842525 55168,6917.873000000001,95.437,541.455,538.02,0.0
50175.0,STARLINK-3291,PAYLOAD,2022-11-27 18:06:46,15.08833667,0.000261,53.2182,226.8674,37.3924,322.725,-0.00011821,-2.169e-05,0.0,0 STARLINK-3291,1 50175U 21125V   22331.75470588 -.00002169  00000-0 -11821-3 0  9990,2 50175  53.2182 226.8674 0002610  37.3924 322.7250 15.08833667 55269,6917.9,95.438,541.57,537.9590000000002,0.0
50175.0,STARLINK-3291,PAYLOAD,2022-11-28 02:03:41,15.0883764,0.0002616,53.2186,225.3804,39.1228,320.9953,-3.0762e-05,-7.78e-06,0.0,0 STARLINK-3291,1 50175U 21125V   22332.08590071 -.00000778  00000-0 -30762-4 0  9997,2 50175  53.2186 225.3804 0002616  39.1228 320.9953 15.08837640 55316,6917.888000000001,95.438,541.562,537.943,0.0
50175.0,STARLINK-3291,PAYLOAD,2022-11-28 16:22:09,15.0884834,0.0002496,53.2184,222.704,40.9171,319.2008,3.6593e-06,-2.3e-06,0.0,0 STARLINK-3291,1 50175U 21125V   22332.68205220 -.00000230  00000-0  36593-5 0  9993,2 50175  53.2184 222.7040 0002496  40.9171 319.2008 15.08848340 55894,6917.855,95.437,541.447,537.993,0.0
50175.0,STARLINK-3291,PAYLOAD,2022-11-28 17:57:32,15.08846083,0.0002517,53.2188,222.4065,41.1162,319.002,-9.0316e-06,-4.32e-06,0.0,0 STARLINK-3291,1 50175U 21125V   22332.74829390 -.00000432  00000-0 -90316-5 0  9998,2 50175  53.2188 222.4065 0002517  41.1162 319.0020 15.08846083 55411,6917.861999999999,95.437,541.4680000000002,537.986,0.0
50175.0,STARLINK-3291,PAYLOAD,2022-11-29 00:19:05,15.08840408,0.0002479,53.2178,221.2168,39.9613,320.1561,-8.8019e-05,-1.689e-05,0.0,0 STARLINK-3291,1 50175U 21125V   22333.01325968 -.00001689  00000-0 -88019-4 0  9992,2 50175  53.2178 221.2168 0002479  39.9613 320.1561 15.08840408 55456,6917.879,95.438,541.4590000000002,538.029,0.0
50175.0,STARLINK-3291,PAYLOAD,2022-11-29 09:51:24,15.08839453,0.0002477,53.2181,219.4328,37.5794,322.5371,4.8884e-05,4.9000000000000005e-06,0.0,0 STARLINK-3291,1 50175U 21125V   22333.41069579  .00000490  00000-0  48884-4 0  9992,2 50175  53.2181 219.4328 0002477  37.5794 322.5371 15.08839453 56004,6917.882,95.438,541.461,538.034,0.0
50175.0,STARLINK-3291,PAYLOAD,2022-11-29 16:12:56,15.08837165,0.0002398,53.2177,218.2431,36.8121,323.3035,3.7743e-05,3.12e-06,0.0,0 STARLINK-3291,1 50175U 21125V   22333.67565842  .00000312  00000-0  37743-4 0  9999,2 50175  53.2177 218.2431 0002398  36.8121 323.3035 15.08837165 56047,6917.889,95.438,541.413,538.095,0.0
50175.0,STARLINK-3291,PAYLOAD,2022-11-30 09:42:11,15.08839026,0.0002392,53.2176,214.9722,36.0133,324.1020000000001,-7.8532e-05,-1.538e-05,0.0,0 STARLINK-3291,1 50175U 21125V   22334.40430283 -.00001538  00000-0 -78532-4 0  9995,2 50175  53.2176 214.9722 0002392  36.0133 324.1020 15.08839026 55669,6917.8830000000025,95.438,541.403,538.094,0.0
50175.0,STARLINK-3291,PAYLOAD,2022-11-30 16:03:43,15.08845067,0.0002297,53.2175,213.7828,34.9807,325.1335,-3.8283e-05,-8.98e-06,0.0,0 STARLINK-3291,1 50175U 21125V   22334.66925701 -.00000898  00000-0 -38283-4 0  9994,2 50175  53.2175 213.7828 0002297  34.9807 325.1335 15.08845067 55708,6917.865,95.437,541.319,538.141,0.0
50175.0,STARLINK-3291,PAYLOAD,2022-12-01 09:32:58,15.08833685,0.0002513,53.2182,210.5125,35.9996,324.1165,5.9712e-06,-1.93e-06,0.0,0 STARLINK-3291,1 50175U 21125V   22335.39790382 -.00000193  00000-0  59712-5 0  9998,2 50175  53.2182 210.5125 0002513  35.9996 324.1165 15.08833685 56302,6917.9,95.438,541.503,538.026,0.0
50175.0,STARLINK-3291,PAYLOAD,2022-12-01 14:19:07,15.0887666,0.0002735,53.2181,209.6212,32.645,327.471,-0.00053277,-8.767e-05,0.0,0 STARLINK-3291,1 50175U 21125V   22335.59661729 -.00008767  00000-0 -53277-3 0  9996,2 50175  53.2181 209.6212 0002735  32.6450 327.4710 15.08876660 55842,6917.768,95.435,541.525,537.741,0.0
50175.0,STARLINK-3291,PAYLOAD,2022-12-02 01:26:49,15.08842197,0.0002456,53.2174,207.5391,37.6288,322.4875,0.00010752,1.423e-05,0.0,0 STARLINK-3291,1 50175U 21125V   22336.06029517  .00001423  00000-0  10752-3 0  9993,2 50175  53.2174 207.5391 0002456  37.6288 322.4875 15.08842197 55916,6917.874,95.437,541.438,538.04,0.0
50175.0,STARLINK-3291,PAYLOAD,2022-12-02 14:09:54,15.08846088,0.0002497,53.2167,205.1592,40.6377,319.4801,-2.2305e-05,-6.44e-06,0.0,0 STARLINK-3291,1 50175U 21125V   22336.59021717 -.00000644  00000-0 -22305-4 0  9999,2 50175  53.2167 205.1592 0002497  40.6377 319.4801 15.08846088 56484,6917.861999999999,95.437,541.4540000000002,537.999,0.0
50175.0,STARLINK-3291,PAYLOAD,2022-12-03 01:17:36,15.0884063,0.0002554,53.217,203.0784,38.0375,322.0797,-3.0585e-05,-7.75e-06,0.0,0 STARLINK-3291,1 50175U 21125V   22337.05389984 -.00000775  00000-0 -30585-4 0  9998,2 50175  53.2170 203.0784 0002554  38.0375 322.0797 15.08840630 56066,6917.878000000002,95.438,541.51,537.977,0.0
50175.0,STARLINK-3291,PAYLOAD,2022-12-03 07:39:10,15.08828467,0.0002561,53.2167,201.8885,39.5237,320.5942,-2.7651e-05,-7.28e-06,0.0,0 STARLINK-3291,1 50175U 21125V   22337.31886858 -.00000728  00000-0 -27651-4 0  9997,2 50175  53.2167 201.8885 0002561  39.5237 320.5942 15.08828467 56105,6917.916,95.438,541.552,538.009,0.0
50175.0,STARLINK-3291,PAYLOAD,2022-12-03 20:22:15,15.08832035,0.0002592,53.2171,199.51,41.7225,318.3965,-4.0145e-05,-9.27e-06,0.0,0 STARLINK-3291,1 50175U 21125V   22337.84878953 -.00000927  00000-0 -40145-4 0  9996,2 50175  53.2171 199.5100 0002592  41.7225 318.3965 15.08832035 56677,6917.905,95.438,541.563,537.977,0.0
50175.0,STARLINK-3291,PAYLOAD,2022-12-04 01:08:24,15.08834648,0.0002612,53.2168,198.6182,39.0989,321.0192,-4.4584e-05,-9.98e-06,0.0,0 STARLINK-3291,1 50175U 21125V   22338.04750873 -.00000998  00000-0 -44584-4 0  9998,2 50175  53.2168 198.6182 0002612  39.0989 321.0192 15.08834648 56218,6917.897,95.438,541.569,537.955,0.0
50175.0,STARLINK-3291,PAYLOAD,2022-12-05 00:59:11,15.08839849,0.000258,53.2172,194.1581,40.7706,319.3479,5.2598e-05,5.49e-06,0.0,0 STARLINK-3291,1 50175U 21125V   22339.04110338  .00000549  00000-0  52598-4 0  9999,2 50175  53.2172 194.1581 0002580  40.7706 319.3479 15.08839849 56369,6917.880999999999,95.438,541.531,537.961,0.0
50175.0,STARLINK-3291,PAYLOAD,2022-12-05 07:20:44,15.08831138,0.0002529,53.216,192.9691,39.3193,320.7983,-1.7365e-05,-5.65e-06,0.0,0 STARLINK-3291,1 50175U 21125V   22339.30607223 -.00000565  00000-0 -17365-4 0  9995,2 50175  53.2160 192.9691 0002529  39.3193 320.7983 15.08831138 56405,6917.906999999997,95.438,541.5219999999998,538.023,0.0
